CCSDS_OMM_VERS = 2.0
CREATION_DATE  = 
ORIGINATOR     = 

OBJECT_NAME    = SL-14 R/B
OBJECT_ID      = 1986-046B
CENTER_NAME    = EARTH
REF_FRAME      = TEME
TIME_SYSTEM    = UTC
MEAN_ELEMENT_THEORY = SGP/SGP4

EPOCH          = 2026-03-20T09:10:08.101344
MEAN_MOTION    = 14.85600130
ECCENTRICITY   = .0022798
INCLINATION    = 82.4790
RA_OF_ASC_NODE = 70.0755
ARG_OF_PERICENTER = 188.8755
MEAN_ANOMALY   = 171.2062

EPHEMERIS_TYPE = 0
CLASSIFICATION_TYPE = U
NORAD_CAT_ID   = 16792
ELEMENT_SET_NO = 999
REV_AT_EPOCH   = 12799
BSTAR          = .44169E-4
MEAN_MOTION_DOT = .408E-5
MEAN_MOTION_DDOT = 0

CCSDS_OMM_VERS = 2.0
CREATION_DATE  = 
ORIGINATOR     = 

OBJECT_NAME    = SL-14 R/B
OBJECT_ID      = 1986-055B
CENTER_NAME    = EARTH
REF_FRAME      = TEME
TIME_SYSTEM    = UTC
MEAN_ELEMENT_THEORY = SGP/SGP4

EPOCH          = 2026-03-20T08:49:28.488576
MEAN_MOTION    = 14.85651520
ECCENTRICITY   = .0017491
INCLINATION    = 82.5181
RA_OF_ASC_NODE = 116.6361
ARG_OF_PERICENTER = 299.2069
MEAN_ANOMALY   = 71.1690

EPHEMERIS_TYPE = 0
CLASSIFICATION_TYPE = U
NORAD_CAT_ID   = 16882
ELEMENT_SET_NO = 999
REV_AT_EPOCH   = 12095
BSTAR          = .40285E-4
MEAN_MOTION_DOT = .374E-5
MEAN_MOTION_DDOT = 0

CCSDS_OMM_VERS = 2.0
CREATION_DATE  = 
ORIGINATOR     = 

OBJECT_NAME    = AJISAI (EGS)
OBJECT_ID      = 1986-061A
CENTER_NAME    = EARTH
REF_FRAME      = TEME
TIME_SYSTEM    = UTC
MEAN_ELEMENT_THEORY = SGP/SGP4

EPOCH          = 2026-03-20T13:33:45.281952
MEAN_MOTION    = 12.44515677
ECCENTRICITY   = .0011307
INCLINATION    = 50.0094
RA_OF_ASC_NODE = 59.9043
ARG_OF_PERICENTER = 315.0530
MEAN_ANOMALY   = 150.9447

EPHEMERIS_TYPE = 0
CLASSIFICATION_TYPE = U
NORAD_CAT_ID   = 16908
ELEMENT_SET_NO = 999
REV_AT_EPOCH   = 46935
BSTAR          = -.12245E-3
MEAN_MOTION_DOT = -.115E-5
MEAN_MOTION_DDOT = 0

CCSDS_OMM_VERS = 2.0
CREATION_DATE  = 
ORIGINATOR     = 

OBJECT_NAME    = SL-14 R/B
OBJECT_ID      = 1987-024B
CENTER_NAME    = EARTH
REF_FRAME      = TEME
TIME_SYSTEM    = UTC
MEAN_ELEMENT_THEORY = SGP/SGP4

EPOCH          = 2026-03-20T09:52:36.890112
MEAN_MOTION    = 14.86141678
ECCENTRICITY   = .0017134
INCLINATION    = 82.5245
RA_OF_ASC_NODE = 82.6830
ARG_OF_PERICENTER = 221.5933
MEAN_ANOMALY   = 138.3981

EPHEMERIS_TYPE = 0
CLASSIFICATION_TYPE = U
NORAD_CAT_ID   = 17567
ELEMENT_SET_NO = 999
REV_AT_EPOCH   = 8972
BSTAR          = .43509E-4
MEAN_MOTION_DOT = .406E-5
MEAN_MOTION_DDOT = 0

CCSDS_OMM_VERS = 2.0
CREATION_DATE  = 
ORIGINATOR     = 

OBJECT_NAME    = COSMOS 1833
OBJECT_ID      = 1987-027A
CENTER_NAME    = EARTH
REF_FRAME      = TEME
TIME_SYSTEM    = UTC
MEAN_ELEMENT_THEORY = SGP/SGP4

EPOCH          = 2026-03-20T08:05:30.232608
MEAN_MOTION    = 14.13051328
ECCENTRICITY   = .0023711
INCLINATION    = 70.9195
RA_OF_ASC_NODE = 303.6407
ARG_OF_PERICENTER = 199.2046
MEAN_ANOMALY   = 160.8184

EPHEMERIS_TYPE = 0
CLASSIFICATION_TYPE = U
NORAD_CAT_ID   = 17589
ELEMENT_SET_NO = 999
REV_AT_EPOCH   = 1182
BSTAR          = -.10364E-3
MEAN_MOTION_DOT = -.242E-5
MEAN_MOTION_DDOT = 0

CCSDS_OMM_VERS = 2.0
CREATION_DATE  = 
ORIGINATOR     = 

OBJECT_NAME    = SL-16 R/B
OBJECT_ID      = 1987-027B
CENTER_NAME    = EARTH
REF_FRAME      = TEME
TIME_SYSTEM    = UTC
MEAN_ELEMENT_THEORY = SGP/SGP4

EPOCH          = 2026-03-20T10:06:24.729120
MEAN_MOTION    = 14.17166613
ECCENTRICITY   = .0003034
INCLINATION    = 70.9993
RA_OF_ASC_NODE = 253.8789
ARG_OF_PERICENTER = 117.5861
MEAN_ANOMALY   = 242.5571

EPHEMERIS_TYPE = 0
CLASSIFICATION_TYPE = U
NORAD_CAT_ID   = 17590
ELEMENT_SET_NO = 999
REV_AT_EPOCH   = 1686
BSTAR          = -.39175E-4
MEAN_MOTION_DOT = -.127E-5
MEAN_MOTION_DDOT = 0

CCSDS_OMM_VERS = 2.0
CREATION_DATE  = 
ORIGINATOR     = 

OBJECT_NAME    = SL-14 R/B
OBJECT_ID      = 1987-038B
CENTER_NAME    = EARTH
REF_FRAME      = TEME
TIME_SYSTEM    = UTC
MEAN_ELEMENT_THEORY = SGP/SGP4

EPOCH          = 2026-03-20T13:07:19.415136
MEAN_MOTION    = 14.85378480
ECCENTRICITY   = .0020468
INCLINATION    = 82.4984
RA_OF_ASC_NODE = 286.5779
ARG_OF_PERICENTER = 126.1406
MEAN_ANOMALY   = 234.1708

EPHEMERIS_TYPE = 0
CLASSIFICATION_TYPE = U
NORAD_CAT_ID   = 17912
ELEMENT_SET_NO = 999
REV_AT_EPOCH   = 8084
BSTAR          = .43626E-4
MEAN_MOTION_DOT = .401E-5
MEAN_MOTION_DDOT = 0

CCSDS_OMM_VERS = 2.0
CREATION_DATE  = 
ORIGINATOR     = 

OBJECT_NAME    = COSMOS 1844
OBJECT_ID      = 1987-041A
CENTER_NAME    = EARTH
REF_FRAME      = TEME
TIME_SYSTEM    = UTC
MEAN_ELEMENT_THEORY = SGP/SGP4

EPOCH          = 2026-03-20T12:03:31.495104
MEAN_MOTION    = 14.14551601
ECCENTRICITY   = .0030572
INCLINATION    = 70.9009
RA_OF_ASC_NODE = 11.3690
ARG_OF_PERICENTER = 2.1043
MEAN_ANOMALY   = 358.0201

EPHEMERIS_TYPE = 0
CLASSIFICATION_TYPE = U
NORAD_CAT_ID   = 17973
ELEMENT_SET_NO = 999
REV_AT_EPOCH   = 511
BSTAR          = .7792E-4
MEAN_MOTION_DOT = .102E-5
MEAN_MOTION_DDOT = 0

CCSDS_OMM_VERS = 2.0
CREATION_DATE  = 
ORIGINATOR     = 

OBJECT_NAME    = SL-14 R/B
OBJECT_ID      = 1987-055B
CENTER_NAME    = EARTH
REF_FRAME      = TEME
TIME_SYSTEM    = UTC
MEAN_ELEMENT_THEORY = SGP/SGP4

EPOCH          = 2026-03-20T10:54:17.415072
MEAN_MOTION    = 14.85640159
ECCENTRICITY   = .0020171
INCLINATION    = 82.5023
RA_OF_ASC_NODE = 338.8884
ARG_OF_PERICENTER = 342.3294
MEAN_ANOMALY   = 17.7218

EPHEMERIS_TYPE = 0
CLASSIFICATION_TYPE = U
NORAD_CAT_ID   = 18153
ELEMENT_SET_NO = 999
REV_AT_EPOCH   = 7153
BSTAR          = .43635E-4
MEAN_MOTION_DOT = .403E-5
MEAN_MOTION_DDOT = 0

CCSDS_OMM_VERS = 2.0
CREATION_DATE  = 
ORIGINATOR     = 

OBJECT_NAME    = COSMOS 1867
OBJECT_ID      = 1987-060A
CENTER_NAME    = EARTH
REF_FRAME      = TEME
TIME_SYSTEM    = UTC
MEAN_ELEMENT_THEORY = SGP/SGP4

EPOCH          = 2026-03-20T13:10:55.296768
MEAN_MOTION    = 14.31504634
ECCENTRICITY   = .0014651
INCLINATION    = 65.0094
RA_OF_ASC_NODE = 276.2922
ARG_OF_PERICENTER = 279.2786
MEAN_ANOMALY   = 80.6641

EPHEMERIS_TYPE = 0
CLASSIFICATION_TYPE = U
NORAD_CAT_ID   = 18187
ELEMENT_SET_NO = 999
REV_AT_EPOCH   = 2149
BSTAR          = .2419E-4
MEAN_MOTION_DOT = -.36E-6
MEAN_MOTION_DDOT = 0

CCSDS_OMM_VERS = 2.0
CREATION_DATE  = 
ORIGINATOR     = 

OBJECT_NAME    = SL-14 R/B
OBJECT_ID      = 1988-001B
CENTER_NAME    = EARTH
REF_FRAME      = TEME
TIME_SYSTEM    = UTC
MEAN_ELEMENT_THEORY = SGP/SGP4

EPOCH          = 2026-03-20T09:11:39.568704
MEAN_MOTION    = 14.85539543
ECCENTRICITY   = .0017592
INCLINATION    = 82.5161
RA_OF_ASC_NODE = 185.3055
ARG_OF_PERICENTER = 198.5177
MEAN_ANOMALY   = 161.5401

EPHEMERIS_TYPE = 0
CLASSIFICATION_TYPE = U
NORAD_CAT_ID   = 18749
ELEMENT_SET_NO = 999
REV_AT_EPOCH   = 4361
BSTAR          = .50017E-4
MEAN_MOTION_DOT = .457E-5
MEAN_MOTION_DDOT = 0

CCSDS_OMM_VERS = 2.0
CREATION_DATE  = 
ORIGINATOR     = 

OBJECT_NAME    = COSMOS 1933
OBJECT_ID      = 1988-020A
CENTER_NAME    = EARTH
REF_FRAME      = TEME
TIME_SYSTEM    = UTC
MEAN_ELEMENT_THEORY = SGP/SGP4

EPOCH          = 2026-03-20T09:39:52.095456
MEAN_MOTION    = 15.18076490
ECCENTRICITY   = .0004743
INCLINATION    = 82.5106
RA_OF_ASC_NODE = 240.3093
ARG_OF_PERICENTER = 147.6353
MEAN_ANOMALY   = 212.5172

EPHEMERIS_TYPE = 0
CLASSIFICATION_TYPE = U
NORAD_CAT_ID   = 18958
ELEMENT_SET_NO = 999
REV_AT_EPOCH   = 5185
BSTAR          = .18143E-3
MEAN_MOTION_DOT = .3726E-4
MEAN_MOTION_DDOT = 0

